H1 CPF 01  gfz 2021 01 12 01  5121 tandemx   
H2 1003001  6202 36605    2021 01 12 00 59 42 2021 01 17 00 00 42   120 1 1  0 0 0
H9
10 0 59228  29502.000000  0    1511766.035     74938.632   6709269.032
10 0 59228  29622.000000  0    2238181.924   -445741.215   6488758.378
10 0 59228  29742.000000  0    2916385.023   -970933.797   6154195.172
10 0 59228  29862.000000  0    3534532.403  -1490520.125   5711427.198
10 0 59228  29982.000000  0    4081997.718  -1994275.512   5168203.314
10 0 59228  30102.000000  0    4549558.149  -2472070.729   4534043.189
10 0 59228  30222.000000  0    4929556.355  -2914076.719   3820076.810
10 0 59228  30342.000000  0    5216034.116  -3310968.998   3038852.451
10 0 59228  30462.000000  0    5404832.545  -3654125.495   2204115.256
10 0 59228  30582.000000  0    5493655.606  -3935813.935   1330562.757
10 0 59228  30702.000000  0    5482097.162  -4149364.828    433580.900
10 0 59228  30822.000000  0    5371629.812  -4289323.864   -471034.299
10 0 59228  30942.000000  0    5165555.727  -4351581.410  -1367363.949
10 0 59228  31062.000000  0    4868920.149  -4333473.984  -2239655.353
10 0 59228  31182.000000  0    4488390.060  -4233856.032  -3072606.119
10 0 59228  31302.000000  0    4032102.121  -4053140.816  -3851637.035
10 0 59228  31422.000000  0    3509483.634  -3793309.045  -4563148.256
10 0 59228  31542.000000  0    2931052.029  -3457886.569  -5194753.713
10 0 59228  31662.000000  0    2308197.828  -3051891.801  -5735489.637
10 0 59228  31782.000000  0    1652957.708  -2581755.857  -6175994.144
10 0 59228  31902.000000  0     977781.625  -2055217.409  -6508659.687
10 0 59228  32022.000000  0     295296.676  -1481191.602  -6727754.477
10 0 59228  32142.000000  0    -381925.987   -869617.889  -6829510.398
10 0 59228  32262.000000  0   -1041597.190   -231289.875  -6812179.690
10 0 59228  32382.000000  0   -1671927.318    422330.894  -6676061.407
10 0 59228  32502.000000  0   -2261832.184   1079315.373  -6423496.212
10 0 59228  32622.000000  0   -2801123.426   1727479.167  -6058830.566
10 0 59228  32742.000000  0   -3280682.221   2354603.074  -5588350.448
10 0 59228  32862.000000  0   -3692614.735   2948660.475  -5020184.894
10 0 59228  32982.000000  0   -4030386.713   3498047.499  -4364176.999
10 0 59228  33102.000000  0   -4288932.543   3991810.866  -3631722.971
10 0 59228  33222.000000  0   -4464735.957   4419869.284  -2835583.092
10 0 59228  33342.000000  0   -4555882.798   4773223.860  -1989665.715
10 0 59228  33462.000000  0   -4562082.682   5044151.534  -1108786.916
10 0 59228  33582.000000  0   -4484659.458   5226378.270   -208409.561
10 0 59228  33702.000000  0   -4326507.060   5315224.940    695634.586
10 0 59228  33822.000000  0   -4092014.313   5307722.622   1587430.203
10 0 59228  33942.000000  0   -3786958.830   5202693.598   2451269.512
10 0 59228  34062.000000  0   -3418371.638   5000794.476   3271938.214
10 0 59228  34182.000000  0   -2994377.333   4704522.501   4034989.781
10 0 59228  34302.000000  0   -2524015.398   4318185.529   4727003.998
10 0 59228  34422.000000  0   -2017045.711   3847835.272   5335824.939
10 0 59228  34542.000000  0   -1483743.744   3301165.887   5850773.489
10 0 59228  34662.000000  0    -934689.784   2687380.952   6262830.538
10 0 59228  34782.000000  0    -380557.949   2017031.878   6564788.312
10 0 59228  34902.000000  0     168090.560   1301833.124   6751370.168
10 0 59228  35022.000000  0     701008.521    554454.781   6819317.838
10 0 59228  35142.000000  0    1208453.198   -211701.966   6767443.859
10 0 59228  35262.000000  0    1681363.443   -982744.189   6596651.956
10 0 59228  35382.000000  0    2111521.286  -1744538.741   6309922.461
10 0 59228  35502.000000  0    2491695.386  -2482970.752   5912264.467
10 0 59228  35622.000000  0    2815764.782  -3184206.557   5410633.733
10 0 59228  35742.000000  0    3078819.583  -3834955.440   4813816.456
10 0 59228  35862.000000  0    3277237.481  -4422725.631   4132281.276
10 0 59228  35982.000000  0    3408735.062  -4936070.676   3377999.526
10 0 59228  36102.000000  0    3472391.251  -5364818.884   2564236.147
10 0 59228  36222.000000  0    3468643.010  -5700281.800   1705314.986
10 0 59228  36342.000000  0    3399252.333  -5935435.797    816362.322
10 0 59228  36462.000000  0    3267246.052  -6065070.900    -86965.663
10 0 59228  36582.000000  0    3076830.719  -6085906.631   -988766.000
10 0 59228  36702.000000  0    2833281.590  -5996667.725  -1873179.559
10 0 59228  36822.000000  0    2542810.426  -5798118.684  -2724677.038
10 0 59228  36942.000000  0    2212416.539  -5493058.314  -3528338.229
10 0 59228  37062.000000  0    1849722.828  -5086272.683  -4270117.329
10 0 59228  37182.000000  0    1462802.776  -4584448.098  -4937086.246
10 0 59228  37302.000000  0    1060004.280  -3996050.116  -5517653.870
10 0 59228  37422.000000  0     649772.982  -3331170.976  -6001759.312
10 0 59228  37542.000000  0     240478.448  -2601348.721  -6381035.496
10 0 59228  37662.000000  0    -159752.830  -1819362.554  -6648942.223
10 0 59228  37782.000000  0    -543194.382   -999008.117  -6800868.307
10 0 59228  37902.000000  0    -902664.045   -154856.225  -6834202.787
10 0 59228  38022.000000  0   -1231654.585    698001.184  -6748373.952
10 0 59228  38142.000000  0   -1524448.709   1544213.652  -6544857.585
10 0 59228  38262.000000  0   -1776216.006   2368441.525  -6227154.072
10 0 59228  38382.000000  0   -1983091.810   3155627.708  -5800736.089
10 0 59228  38502.000000  0   -2142236.809   3891270.175  -5272964.173
10 0 59228  38622.000000  0   -2251875.843   4561689.283  -4652971.421
10 0 59228  38742.000000  0   -2311315.919   5154286.645  -3951516.291
10 0 59228  38862.000000  0   -2320941.587   5657788.242  -3180804.393
10 0 59228  38982.000000  0   -2282187.463   6062467.017  -2354283.747
10 0 59228  39102.000000  0   -2197488.971   6360342.063  -1486414.553
10 0 59228  39222.000000  0   -2070211.990   6545345.918   -592415.478
10 0 59228  39342.000000  0   -1904562.581   6613456.897    312005.099
10 0 59228  39462.000000  0   -1705478.821   6562795.256   1210932.168
10 0 59228  39582.000000  0   -1478506.070   6393672.483   2088536.200
10 0 59228  39702.000000  0   -1229659.332   6108594.196   2929360.957
10 0 59228  39822.000000  0    -965277.773   5712220.213   3718602.234
10 0 59228  39942.000000  0    -691875.021   5211283.448   4442373.581
10 0 59228  40062.000000  0    -415988.017   4614467.011   5087955.754
10 0 59228  40182.000000  0    -144026.741   3932241.376   5644018.658
10 0 59228  40302.000000  0     117868.089   3176673.303   6100816.361
10 0 59228  40422.000000  0     363958.105   2361203.740   6450353.871
10 0 59228  40542.000000  0     589028.690   1500403.198   6686520.619
10 0 59228  40662.000000  0     788496.309    609707.581   6805191.639
10 0 59228  40782.000000  0     958499.583   -294859.352   6804294.143
10 0 59228  40902.000000  0    1095973.022  -1196973.042   6683842.483
10 0 59228  41022.000000  0    1198702.218  -2080302.624   6445938.474
10 0 59228  41142.000000  0    1265359.631  -2928806.489   6094737.582
10 0 59228  41262.000000  0    1295520.158  -3727025.749   5636380.497
10 0 59228  41382.000000  0    1289656.117  -4460368.305   5078889.838
10 0 59228  41502.000000  0    1249113.333  -5115379.083   4432035.933
10 0 59228  41622.000000  0    1176067.524  -5679994.913   3707172.152
10 0 59228  41742.000000  0    1073461.827  -6143777.158   2917037.982
10 0 59228  41862.000000  0     944926.577  -6498113.810   2075534.637
10 0 59228  41982.000000  0     794682.217  -6736388.620   1197478.538
10 0 59228  42102.000000  0     627429.091  -6854112.902    298335.692
10 0 59228  42222.000000  0     448225.630  -6849016.538   -606059.605
10 0 59228  42342.000000  0     262357.766  -6721090.964  -1499794.589
10 0 59228  42462.000000  0      75205.111  -6472585.655  -2367166.311
10 0 59228  42582.000000  0    -107893.472  -6107960.872  -3192963.422
10 0 59228  42702.000000  0    -281772.119  -5633797.633  -3962737.031
10 0 59228  42822.000000  0    -441564.652  -5058666.037  -4663054.557
10 0 59228  42942.000000  0    -582822.296  -4392957.023  -5281729.964
10 0 59228  43062.000000  0    -701620.006  -3648683.483  -5808028.559
10 0 59228  43182.000000  0    -794648.883  -2839254.569  -6232843.581
10 0 59228  43302.000000  0    -859293.290  -1979228.458  -6548842.692
10 0 59228  43422.000000  0    -893691.481  -1084048.840  -6750582.865
10 0 59228  43542.000000  0    -896779.127   -169770.080  -6834594.689
10 0 59228  43662.000000  0    -868314.434    747226.038  -6799434.988
10 0 59228  43782.000000  0    -808884.917   1650516.139  -6645708.108
10 0 59228  43902.000000  0    -719896.253   2523921.728  -6376056.633
10 0 59228  44022.000000  0    -603542.837   3351792.334  -5995121.986
10 0 59228  44142.000000  0    -462760.199   4119283.413  -5509473.799
10 0 59228  44262.000000  0    -301159.873   4812622.354  -4927507.007
10 0 59228  44382.000000  0    -122948.401   5419359.879  -4259308.626
10 0 59228  44502.000000  0      67168.685   5928601.820  -3516493.030
10 0 59228  44622.000000  0     264096.386   6331215.067  -2712007.982
10 0 59228  44742.000000  0     462470.933   6620003.745  -1859914.313
10 0 59228  44862.000000  0     656789.146   6789851.005   -975141.444
10 0 59228  44982.000000  0     841543.506   6837821.291    -73223.073
10 0 59228  45102.000000  0    1011359.593   6763219.892    829981.622
10 0 59228  45222.000000  0    1161132.000   6567606.733   1718574.926
10 0 59228  45342.000000  0    1286154.107   6254765.363   2576908.557
10 0 59228  45462.000000  0    1382239.627   5830628.296   3389866.881
10 0 59228  45582.000000  0    1445833.042   5303159.584   4143140.710
10 0 59228  45702.000000  0    1474106.889   4682197.091   4823483.752
10 0 59228  45822.000000  0    1465040.883   3979257.825   5418949.550
10 0 59228  45942.000000  0    1417482.150   3207312.806   5919096.445
99
